STARLINK-5109           
1 54002U 22125AQ  26068.66819291 -.00004119  00000+0 -24083-3 0  9993
2 54002  53.2175 203.9515 0001434  94.0784 266.0372 15.08845553189609
SEDNA-2                 
1 63153U 25009DQ  26068.79893845  .00008085  00000+0  49393-3 0  9990
2 63153  97.4615 144.8075 0010309  53.0260 307.1912 15.10492622 63116
