[{"OBJECT_NAME":"STARLINK-5109","OBJECT_ID":"2022-125AQ","EPOCH":"2026-03-09T16:02:11.867424","MEAN_MOTION":15.08845554,"ECCENTRICITY":0.00014338,"INCLINATION":53.2175,"RA_OF_ASC_NODE":203.9515,"ARG_OF_PERICENTER":94.0784,"MEAN_ANOMALY":266.0372,"EPHEMERIS_TYPE":0,"CLASSIFICATION_TYPE":"U","NORAD_CAT_ID":54002,"ELEMENT_SET_NO":999,"REV_AT_EPOCH":18960,"BSTAR":-0.0002408347,"MEAN_MOTION_DOT":-4.119e-5,"MEAN_MOTION_DDOT":0},{"OBJECT_NAME":"SEDNA-2","OBJECT_ID":"2025-009DQ","EPOCH":"2026-03-09T19:10:28.282944","MEAN_MOTION":15.10492622,"ECCENTRICITY":0.0010309,"INCLINATION":97.4615,"RA_OF_ASC_NODE":144.8075,"ARG_OF_PERICENTER":53.026,"MEAN_ANOMALY":307.1912,"EPHEMERIS_TYPE":0,"CLASSIFICATION_TYPE":"U","NORAD_CAT_ID":63153,"ELEMENT_SET_NO":999,"REV_AT_EPOCH":6311,"BSTAR":0.00049393403,"MEAN_MOTION_DOT":8.085e-5,"MEAN_MOTION_DDOT":0}]
